NORAD_CAT_ID,OBJECT_NAME,OBJECT_TYPE,EPOCH,MEAN_MOTION,ECCENTRICITY,INCLINATION,RA_OF_ASC_NODE,ARG_OF_PERICENTER,MEAN_ANOMALY,BSTAR,MEAN_MOTION_DOT,MEAN_MOTION_DDOT,TLE_LINE0,TLE_LINE1,TLE_LINE2,SEMIMAJOR_AXIS,PERIOD,APOGEE,PERIGEE,DECAYED
51108.0,STARLINK-3362,PAYLOAD,2023-06-05 22:24:25,15.08840311,0.0001095,53.2158,133.1119,83.1741,276.9376,4.6577e-05,4.54e-06,0.0,0 STARLINK-3362,1 51108U 22005E   23156.93363416  .00000454  00000-0  46577-4 0  9992,2 51108  53.2158 133.1119 0001095  83.1741 276.9376 15.08840311 76744,6917.879,95.438,540.502,538.987,0.0
51108.0,STARLINK-3362,PAYLOAD,2023-06-06 07:56:44,15.08844495,0.0001116,53.2158,131.3279,82.4538,277.6581,6.6674e-05,7.74e-06,0.0,0 STARLINK-3362,1 51108U 22005E   23157.33107028  .00000774  00000-0  66674-4 0  9997,2 51108  53.2158 131.3279 0001116  82.4538 277.6581 15.08844495 77903,6917.867,95.437,540.504,538.96,0.0
51108.0,STARLINK-3362,PAYLOAD,2023-06-06 15:53:40,15.08841809,0.0001112,53.2158,129.841,83.8887,276.2231,6.021e-05,6.71e-06,0.0,0 STARLINK-3362,1 51108U 22005E   23157.66227169  .00000671  00000-0  60210-4 0  9998,2 51108  53.2158 129.8410 0001112  83.8887 276.2231 15.08841809 77958,6917.875,95.437,540.509,538.971,0.0
51108.0,STARLINK-3362,PAYLOAD,2023-06-07 07:47:31,15.08839982,0.0001186,53.2158,126.8668,90.8801,269.2327,3.5226e-05,2.73e-06,0.0,0 STARLINK-3362,1 51108U 22005E   23158.32467362  .00000273  00000-0  35226-4 0  9990,2 51108  53.2158 126.8668 0001186  90.8801 269.2327 15.08839982 78054,6917.88,95.438,540.566,538.925,0.0
51108.0,STARLINK-3362,PAYLOAD,2023-06-07 22:06:00,15.08834948,0.0001211,53.2155,124.1903,91.7096,268.4034,-5.4202e-05,-1.15e-05,0.0,0 STARLINK-3362,1 51108U 22005E   23158.92084103 -.00001150  00000-0 -54202-4 0  9996,2 51108  53.2155 124.1903 0001211  91.7096 268.4034 15.08834948 77040,6917.896,95.438,540.599,538.923,0.0
51108.0,STARLINK-3362,PAYLOAD,2023-06-08 01:16:46,15.0883448,0.0001227,53.2158,123.5952,93.8808,266.2324,-4.8757e-05,-1.064e-05,0.0,0 STARLINK-3362,1 51108U 22005E   23159.05332134 -.00001064  00000-0 -48757-4 0  9993,2 51108  53.2158 123.5952 0001227  93.8808 266.2324 15.08834480 78164,6917.897,95.438,540.611,538.913,0.0
51108.0,STARLINK-3362,PAYLOAD,2023-06-08 04:27:33,15.08838034,0.0001262,53.2159,123.0033,83.9526,276.161,-8.68e-05,-1.669e-05,0.0,0 STARLINK-3362,1 51108U 22005E   23159.18580129 -.00001669  00000-0 -86800-4 0  9998,2 51108  53.2159 123.0033 0001262  83.9526 276.1610 15.08838034 78185,6917.886,95.438,540.624,538.878,0.0
51108.0,STARLINK-3362,PAYLOAD,2023-06-08 13:59:51,15.0883935,0.0001114,53.2159,121.2188,83.3517,276.7602,-3.0934e-05,-7.8e-06,0.0,0 STARLINK-3362,1 51108U 22005E   23159.58323906 -.00000780  00000-0 -30934-4 0  9990,2 51108  53.2159 121.2188 0001114  83.3517 276.7602 15.08839350 77140,6917.882,95.438,540.518,538.977,0.0
51108.0,STARLINK-3362,PAYLOAD,2023-06-08 20:21:24,15.0883846,0.0001052,53.2156,120.0282,85.9051,274.2061,3.7318e-05,3.06e-06,0.0,0 STARLINK-3362,1 51108U 22005E   23159.84819754  .00000306  00000-0  37318-4 0  9995,2 51108  53.2156 120.0282 0001052  85.9051 274.2061 15.08838460 78280,6917.885,95.438,540.478,539.022,0.0
51108.0,STARLINK-3362,PAYLOAD,2023-06-09 02:42:56,15.08841183,0.0001098,53.2158,118.8395,84.9529,275.1589,7.6329e-05,9.27e-06,0.0,0 STARLINK-3362,1 51108U 22005E   23160.11315493  .00000927  00000-0  76329-4 0  9992,2 51108  53.2158 118.8395 0001098  84.9529 275.1589 15.08841183 78327,6917.877,95.437,540.501,538.982,0.0
51108.0,STARLINK-3362,PAYLOAD,2023-06-10 04:09:07,15.08831486,0.0001196,53.2165,114.0812,81.449,278.6638,2.9474e-05,1.81e-06,0.0,0 STARLINK-3362,1 51108U 22005E   23161.17300716  .00000181  00000-0  29474-4 0  9992,2 51108  53.2165 114.0812 0001196  81.4490 278.6638 15.08831486 78480,6917.906,95.438,540.599,538.944,0.0
51108.0,STARLINK-3362,PAYLOAD,2023-06-10 05:44:30,15.0883333,0.0001241,53.2165,113.7835,81.5298,278.5835,4.0742e-05,3.61e-06,0.0,0 STARLINK-3362,1 51108U 22005E   23161.23924598  .00000361  00000-0  40742-4 0  9990,2 51108  53.2165 113.7835 0001241  81.5298 278.5835 15.08833330 78498,6917.901,95.438,540.624,538.907,0.0
51108.0,STARLINK-3362,PAYLOAD,2023-06-10 21:38:22,15.08838083,0.0001318,53.2165,110.81,86.2108,273.9035,-1.7013e-05,-5.59e-06,0.0,0 STARLINK-3362,1 51108U 22005E   23161.90164699 -.00000559  00000-0 -17013-4 0  9998,2 51108  53.2165 110.8100 0001318  86.2108 273.9035 15.08838083 77498,6917.886,95.438,540.663,538.839,0.0
51108.0,STARLINK-3362,PAYLOAD,2023-06-11 05:35:17,15.08841497,0.0001337,53.2163,109.3233,88.5559,271.5587,3.9745e-05,3.45e-06,0.0,0 STARLINK-3362,1 51108U 22005E   23162.23284311  .00000345  00000-0  39745-4 0  9996,2 51108  53.2163 109.3233 0001337  88.5559 271.5587 15.08841497 78649,6917.876,95.437,540.666,538.816,0.0
51108.0,STARLINK-3362,PAYLOAD,2023-06-11 13:32:13,15.08838733,0.0001329,53.2163,107.836,92.9937,267.1208,7.5592e-05,9.15e-06,0.0,0 STARLINK-3362,1 51108U 22005E   23162.56404367  .00000915  00000-0  75592-4 0  9990,2 51108  53.2163 107.8360 0001329  92.9937 267.1208 15.08838733 77596,6917.884,95.438,540.669,538.83,0.0
51108.0,STARLINK-3362,PAYLOAD,2023-06-12 05:26:04,15.08843949,0.0001334,53.2164,104.8624,92.951,267.1635,0.00011002,1.464e-05,0.0,0 STARLINK-3362,1 51108U 22005E   23163.22643871  .00001464  00000-0  11002-3 0  9994,2 51108  53.2164 104.8624 0001334  92.9510 267.1635 15.08843949 78792,6917.868,95.437,540.656,538.81,0.0
51108.0,STARLINK-3362,PAYLOAD,2023-06-12 13:23:00,15.0883484,0.000168,53.2168,103.3758,88.8145,271.3039,1.6814e-05,-2e-07,0.0,0 STARLINK-3362,1 51108U 22005E   23163.55764907 -.00000020  00000-0  16814-4 0  9999,2 51108  53.2168 103.3758 0001680  88.8145 271.3039 15.08834840 77749,6917.896,95.438,540.923,538.599,0.0
51108.0,STARLINK-3362,PAYLOAD,2023-06-13 02:06:05,15.08836329,0.0001252,53.2176,100.9968,93.1433,266.9702,-8.6246e-06,-4.25e-06,0.0,0 STARLINK-3362,1 51108U 22005E   23164.08756852 -.00000425  00000-0 -86246-5 0  9995,2 51108  53.2176 100.9968 0001252  93.1433 266.9702 15.08836329 78920,6917.892,95.438,540.623,538.89,0.0
51108.0,STARLINK-3362,PAYLOAD,2023-06-13 05:16:51,15.088416,0.0001365,53.2167,100.4012,94.4994,265.6154,2.8125e-05,1.6e-06,0.0,0 STARLINK-3362,1 51108U 22005E   23164.22004391  .00000160  00000-0  28125-4 0  9990,2 51108  53.2167 100.4012 0001365  94.4994 265.6154 15.08841600 78943,6917.875,95.437,540.685,538.796,0.0
51108.0,STARLINK-3362,PAYLOAD,2023-06-13 22:46:06,15.08836879,0.0001341,53.2171,97.13,96.8336,263.2809,-2.9062e-06,-3.34e-06,0.0,0 STARLINK-3362,1 51108U 22005E   23164.94868785 -.00000334  00000-0 -29062-5 0  9991,2 51108  53.2171  97.1300 0001341  96.8336 263.2809 15.08836879 79056,6917.89,95.438,540.683,538.827,0.0
51108.0,STARLINK-3362,PAYLOAD,2023-06-14 05:07:38,15.08846396,0.0001408,53.2177,95.938,108.2804,251.8342,-1.3104e-05,-4.97e-06,0.0,0 STARLINK-3362,1 51108U 22005E   23165.21364167 -.00000497  00000-0 -13104-4 0  9996,2 51108  53.2177  95.9380 0001408 108.2804 251.8342 15.08846396 79092,6917.861,95.437,540.7,538.752,0.0
51108.0,STARLINK-3362,PAYLOAD,2023-06-15 01:47:39,15.08838227,0.0001202,53.2176,92.0744,95.6234,264.4895,6.8926e-05,8.09e-06,0.0,0 STARLINK-3362,1 51108U 22005E   23166.07476450  .00000809  00000-0  68926-4 0  9997,2 51108  53.2176  92.0744 0001202  95.6234 264.4895 15.08838227 79223,6917.886,95.438,540.582,538.919,0.0
51108.0,STARLINK-3362,PAYLOAD,2023-06-15 04:58:25,15.08843921,0.0001303,53.2175,91.4794,95.3196,264.7945,1.6348e-05,-2.8e-07,0.0,0 STARLINK-3362,1 51108U 22005E   23166.20724295 -.00000028  00000-0  16348-4 0  9990,2 51108  53.2175  91.4794 0001303  95.3196 264.7945 15.08843921 79244,6917.868,95.437,540.635,538.832,0.0
51108.0,STARLINK-3362,PAYLOAD,2023-06-16 01:38:26,15.08845438,0.000112,53.2169,87.6162,89.223,270.8891,3.298e-05,2.37e-06,0.0,0 STARLINK-3362,1 51108U 22005E   23167.06836237  .00000237  00000-0  32980-4 0  9996,2 51108  53.2169  87.6162 0001120  89.2230 270.8891 15.08845438 79378,6917.864,95.437,540.504,538.954,0.0
51108.0,STARLINK-3362,PAYLOAD,2023-06-16 11:10:45,15.08847629,0.0001108,53.2168,85.8321,87.8123,272.2996,3.8512e-05,3.25e-06,0.0,0 STARLINK-3362,1 51108U 22005E   23167.46579947  .00000325  00000-0  38512-4 0  9997,2 51108  53.2168  85.8321 0001108  87.8123 272.2996 15.08847629 78336,6917.857,95.437,540.489,538.956,0.0
51108.0,STARLINK-3362,PAYLOAD,2023-06-16 19:07:41,15.08840042,0.0001141,53.2167,84.3457,94.3625,265.7498,-5.9245e-06,-3.82e-06,0.0,0 STARLINK-3362,1 51108U 22005E   23167.79700639 -.00000382  00000-0 -59245-5 0  9999,2 51108  53.2167  84.3457 0001141  94.3625 265.7498 15.08840042 78387,6917.88,95.438,540.535,538.956,0.0
51108.0,STARLINK-3362,PAYLOAD,2023-06-17 01:29:13,15.08848748,0.0001212,53.2155,83.1577,95.8215,264.2915,4.5158e-05,4.31e-06,0.0,0 STARLINK-3362,1 51108U 22005E   23168.06195783  .00000431  00000-0  45158-4 0  9998,2 51108  53.2155  83.1577 0001212  95.8215 264.2915 15.08848748 79520,6917.854,95.437,540.557,538.88,0.0
51108.0,STARLINK-3362,PAYLOAD,2023-06-17 04:39:59,15.08850703,0.0001127,53.2166,82.5619,93.5961,266.516,9.8432e-05,1.28e-05,0.0,0 STARLINK-3362,1 51108U 22005E   23168.19443482  .00001280  00000-0  98432-4 0  9990,2 51108  53.2166  82.5619 0001127  93.5961 266.5160 15.08850703 79543,6917.848,95.437,540.492,538.933,0.0
51108.0,STARLINK-3362,PAYLOAD,2023-06-17 11:01:33,15.08826527,0.0001638,53.2177,81.3697,84.3486,275.7693,-8.3811e-05,-1.621e-05,0.0,0 STARLINK-3362,1 51108U 22005E   23168.45941778 -.00001621  00000-0 -83811-4 0  9996,2 51108  53.2177  81.3697 0001638  84.3486 275.7693 15.08826527 78487,6917.922,95.438,540.92,538.653,0.0
51108.0,STARLINK-3362,PAYLOAD,2023-06-17 17:23:06,15.0882396,0.000161,53.2172,80.1809,86.1645,273.9532,-4.2081e-05,-9.57e-06,0.0,0 STARLINK-3362,1 51108U 22005E   23168.72438029 -.00000957  00000-0 -42081-4 0  9991,2 51108  53.2172  80.1809 0001610  86.1645 273.9532 15.08823960 79628,6917.929,95.439,540.908,538.681,0.0
